RSN,EQID,Station_Code,Magnitude,Fault_Mechanisc,depth,Joyner_Boore_Rjb,Soil_site_class,PGA,T0.010S,T0.020S,T0.030S,T0.040S,T0.050S,T0.060S,T0.070S,T0.080S,T0.090S,T0.100S,T0.150S,T0.200S,T0.250S,T0.300S,T0.400S,T0.500S,T0.800S,T1.000S,T1.200S,T1.500S,T1.800S,T2.000S,T2.500S,T3.000S,T3.500S,T4.000S,T5.000S
309,60,GUW,5.5,0,79,565.20654,C,0.0024505,0.002462,0.0024993,0.0026105,0.0026177,0.0029304,0.0031233,0.0029503,0.0027702,0.003262,0.0039546,0.0046991,0.0073334,0.0074791,0.0078207,0.0035081,0.0020862,0.0005662,0.00038343,0.00029201,0.00013792,9.54E-05,7.21E-05,5.40E-05,4.12E-05,3.09E-05,2.75E-05,2.29E-05
310,60,KOK,5.5,0,79,424.63935,C,0.003256,0.003271,0.003324,0.0033946,0.0036895,0.0037806,0.0038385,0.0046217,0.0056785,0.0058729,0.0072468,0.0074035,0.010321,0.017498,0.010961,0.0036796,0.0029299,0.001001,0.00067145,0.00048533,0.0002477,0.00013169,9.57E-05,6.91E-05,4.56E-05,3.31E-05,3.47E-05,2.34E-05
311,60,SLG,5.5,0,79,262.66082,C,0.010054,0.010123,0.010344,0.010797,0.012043,0.012673,0.014637,0.015564,0.020945,0.02962,0.037145,0.033679,0.02176,0.018305,0.020197,0.015315,0.0071766,0.0020135,0.0010483,0.00064893,0.00038776,0.00023908,0.00020056,0.00011987,8.64E-05,7.77E-05,5.65E-05,3.55E-05
312,61,AMB,4.5,0,35,2.0180486,C,0.014304,0.014385,0.014651,0.015637,0.016633,0.017641,0.021269,0.025044,0.023389,0.02165,0.02223,0.035817,0.03388,0.024447,0.018656,0.014221,0.0084942,0.004012,0.0019722,0.0013247,0.00073577,0.00055797,0.00046681,0.00029455,0.0002667,0.00021528,0.00017613,0.00018845
313,61,BHA,4.5,0,35,173.52544,A,0.0032655,0.003281,0.0033319,0.0034314,0.0036205,0.0037582,0.0044285,0.0051055,0.0063356,0.005911,0.0065428,0.014573,0.0082518,0.0047416,0.0025658,0.0010974,0.00080517,0.00026911,0.00015214,0.00011348,5.88E-05,4.50E-05,4.02E-05,2.53E-05,2.72E-05,2.65E-05,2.40E-05,2.23E-05
314,61,DEH,4.5,0,35,23.109591,B,0.0050706,0.0051227,0.0053024,0.0056422,0.0063232,0.0079858,0.010177,0.015585,0.021963,0.017749,0.021581,0.0084165,0.0054658,0.0047756,0.0040103,0.0028335,0.0026558,0.00091562,0.00051087,0.00043678,0.00024921,0.0001739,0.00012989,8.54E-05,6.15E-05,3.94E-05,3.69E-05,2.56E-05
315,61,GAR,4.5,0,35,52.590681,C,0.012533,0.012599,0.01281,0.013196,0.013344,0.014346,0.017086,0.017059,0.02174,0.024501,0.026534,0.051575,0.034988,0.01888,0.012372,0.0081048,0.0061827,0.002616,0.0014542,0.00092871,0.00055931,0.00037905,0.00029852,0.00017504,0.00011309,8.47E-05,6.43E-05,4.73E-05
316,61,HAM,4.5,0,35,39.751859,B,0.0030299,0.0030579,0.0031444,0.0032654,0.0035269,0.0043884,0.0049384,0.0055976,0.0074572,0.0083844,0.010162,0.0091326,0.0029276,0.0028133,0.0031852,0.0036563,0.0024927,0.0014004,0.00093481,0.00065783,0.00034437,0.00023752,0.0001846,0.00011116,6.40E-05,5.32E-05,4.05E-05,3.46E-05
317,61,JAL,4.5,0,35,63.999243,C,0.0045903,0.0046097,0.0046647,0.0048691,0.0053095,0.0061149,0.0062272,0.0072254,0.0072868,0.0061782,0.0069945,0.011272,0.013895,0.013123,0.00891,0.0060919,0.0030178,0.00084851,0.00053165,0.00037007,0.00019971,0.00016557,0.00013231,7.82E-05,5.68E-05,4.49E-05,3.62E-05,2.22E-05
318,61,JUB,4.5,0,35,162.62482,A,0.0030127,0.003039,0.0031221,0.0033649,0.0035995,0.0042731,0.0046507,0.0057007,0.0077252,0.0097438,0.011273,0.011057,0.0043778,0.0024277,0.0014419,0.00077517,0.00058575,0.00024794,0.00013721,8.08E-05,6.37E-05,4.96E-05,3.48E-05,3.04E-05,2.28E-05,2.24E-05,2.57E-05,2.26E-05
319,61,KAP,4.5,0,35,76.806669,C,0.0052774,0.0052893,0.0053227,0.0057902,0.0053823,0.006309,0.0066249,0.0068882,0.0071894,0.0071681,0.0081111,0.014219,0.013412,0.0092383,0.0077256,0.0043412,0.0033428,0.0011775,0.0006666,0.0003977,0.00023929,0.00016163,0.00012795,9.45E-05,5.53E-05,3.68E-05,2.80E-05,2.35E-05
320,61,NAW,4.5,0,35,64.201685,C,0.0083414,0.0083779,0.0084959,0.0088746,0.0091404,0.0096721,0.010786,0.011635,0.014969,0.019218,0.016704,0.019579,0.025394,0.024355,0.018482,0.011091,0.0065589,0.0024498,0.001509,0.00094161,0.00071897,0.00063881,0.00059933,0.00052293,0.00045008,0.00038861,0.00042717,0.00030186
321,61,ROO,4.5,0,35,267.86321,C,0.00071002,0.00071242,0.0007201,0.00073057,0.00078413,0.0008425,0.0008192,0.00087741,0.00089705,0.0010112,0.0011226,0.0018485,0.0026589,0.0027928,0.0016301,0.00090841,0.0008232,0.00031202,0.00019145,0.00013851,7.59E-05,6.17E-05,5.49E-05,4.44E-05,2.84E-05,2.45E-05,2.42E-05,2.59E-05
322,61,SND,4.5,0,35,76.962711,A,0.0032371,0.0032624,0.0033599,0.00356,0.0041389,0.0044408,0.0048984,0.0063023,0.0081625,0.010727,0.016801,0.014031,0.0064219,0.0043347,0.0036648,0.0040161,0.0018745,0.00099847,0.00063564,0.00035008,0.00018444,0.00012908,0.00010651,6.20E-05,4.22E-05,3.72E-05,2.67E-05,2.44E-05
323,61,SNG,4.5,0,35,163.72363,,9.61E-05,9.77E-05,0.0001048,0.00011576,0.00012264,0.00012543,0.00013316,0.00013642,0.00014248,0.00014621,0.0001432,0.00019642,0.00017983,0.00018077,0.0001577,0.00012083,0.00010101,5.47E-05,3.90E-05,2.98E-05,2.10E-05,1.66E-05,1.35E-05,1.02E-05,7.99E-06,7.29E-06,8.17E-06,7.60E-06
324,62,BAR,3.9,0,8,51.635122,A,0.0029498,0.0029624,0.003,0.0030747,0.0033491,0.0037583,0.0041654,0.0049839,0.0053631,0.0064868,0.0074844,0.013173,0.011549,0.0076211,0.0056049,0.0024931,0.00098472,0.00032148,0.0002215,0.00015633,7.88E-05,5.31E-05,4.13E-05,4.00E-05,3.45E-05,2.76E-05,2.56E-05,2.06E-05
325,62,DHA,3.9,0,8,15.256078,B,0.012978,0.013039,0.013211,0.014053,0.018078,0.018617,0.020044,0.023697,0.022202,0.029606,0.0389,0.040521,0.041672,0.037307,0.02526,0.018477,0.0087077,0.0035511,0.0016868,0.0009413,0.00049498,0.00030907,0.00023707,0.00015565,0.00012056,9.16E-05,6.01E-05,4.49E-05
326,62,ROO,3.9,0,8,76.428451,C,0.00063965,0.00064268,0.00065153,0.00067737,0.00070165,0.00081064,0.00081206,0.00095227,0.0011218,0.0013477,0.0015349,0.0027693,0.00212,0.0014326,0.001267,0.00058436,0.00034762,0.00019639,0.0001191,0.00012335,9.94E-05,8.72E-05,6.59E-05,5.38E-05,3.39E-05,2.69E-05,2.44E-05,2.53E-05
327,62,TEH,3.9,0,8,4.0794422,A,0.020185,0.020457,0.021402,0.024023,0.035268,0.039231,0.036459,0.033166,0.039421,0.040069,0.041534,0.034564,0.042246,0.023144,0.027025,0.023181,0.014149,0.0025889,0.0015786,0.0010411,0.00061575,0.00043741,0.00035379,0.00021299,0.00013562,9.74E-05,7.96E-05,4.75E-05
328,63,BAR,4.7,0,43.8,52.334171,A,0.0030409,0.0030737,0.0032013,0.0036747,0.0037857,0.0040785,0.0045562,0.003698,0.0046023,0.0041407,0.0056149,0.0072673,0.011934,0.009562,0.0061127,0.0024724,0.0013396,0.00035595,0.00023615,0.00014622,8.73E-05,6.31E-05,5.60E-05,3.36E-05,2.94E-05,3.00E-05,3.21E-05,2.06E-05
329,63,JUB,4.7,0,43.8,24.683378,A,0.039327,0.040008,0.04398,0.061912,0.089492,0.069937,0.074162,0.081714,0.070294,0.08744,0.098596,0.10289,0.056686,0.02666,0.015427,0.0077123,0.0045918,0.0014806,0.00085802,0.00060966,0.00037552,0.00024873,0.00019086,0.00012968,9.29E-05,6.91E-05,5.77E-05,3.64E-05
330,63,ROO,4.7,0,43.8,148.33765,C,0.00050935,0.00051117,0.00051704,0.00053831,0.00057015,0.00059962,0.00056034,0.00070705,0.00089332,0.0010972,0.00093668,0.0014599,0.0016015,0.0013559,0.0012384,0.0011157,0.00056169,0.00022024,0.00014335,0.00010662,8.91E-05,5.73E-05,4.76E-05,3.58E-05,3.06E-05,2.76E-05,2.38E-05,2.34E-05
331,63,UNA,4.7,0,43.8,158.05385,C,0.0021258,0.0021312,0.0021457,0.0022311,0.002256,0.0022736,0.0023805,0.002516,0.0026461,0.0031314,0.0035399,0.0049285,0.0073402,0.0075198,0.0051829,0.002204,0.0015041,0.00044922,0.00031177,0.00017727,0.00012085,8.86E-05,5.97E-05,3.51E-05,2.72E-05,2.92E-05,2.55E-05,1.98E-05
332,64,CHP,3.6,0,10,70.010651,A,0.010082,0.010175,0.010514,0.011381,0.017209,0.02523,0.027016,0.030205,0.027427,0.026987,0.023694,0.029376,0.017101,0.01118,0.0070245,0.0024056,0.0013829,0.00049445,0.00028256,0.00016528,0.00010641,7.67E-05,6.50E-05,4.00E-05,3.32E-05,2.98E-05,2.50E-05,2.25E-05
333,64,PIT,3.6,0,10,47.403954,A,0.012643,0.012749,0.013113,0.014707,0.017057,0.022151,0.02381,0.031692,0.033751,0.04624,0.046508,0.034899,0.015785,0.0074044,0.0041906,0.0020458,0.0012199,0.00046801,0.00030735,0.00019927,0.00011991,7.88E-05,6.91E-05,4.16E-05,2.81E-05,2.62E-05,2.55E-05,2.32E-05
334,65,CHP,5.2,0,14.2,57.72,A,0.0025873,0.0025966,0.0026261,0.0026605,0.002762,0.0029783,0.0032286,0.003486,0.0040045,0.004331,0.0046214,0.012601,0.007956,0.0043711,0.0029591,0.002409,0.0016256,0.00046871,0.00044954,0.00035016,0.00027247,0.00032638,0.00033879,0.00029272,0.00018476,9.31E-05,9.75E-05,4.83E-05
335,65,MUN,5.2,0,14.2,31.61,A,0.0061281,0.0061911,0.0063896,0.0079436,0.0088684,0.012693,0.023471,0.018286,0.018655,0.021794,0.018522,0.011317,0.0085985,0.0044967,0.0039925,0.0019344,0.0013572,0.00083223,0.00066936,0.00065569,0.00062353,0.00078906,0.00067361,0.00049079,0.00028427,0.00014664,9.12E-05,5.90E-05
336,66,BAG,4.3,0,6.6,18.10497,A,0.0061018,0.0061619,0.0063924,0.007523,0.0097006,0.012448,0.012688,0.015179,0.019446,0.023923,0.023951,0.014431,0.0094858,0.0074864,0.006545,0.0038321,0.0026109,0.0010474,0.00055293,0.00034542,0.00018272,0.00012347,9.15E-05,5.47E-05,3.55E-05,3.07E-05,2.21E-05,2.47E-05
337,66,GAR,4.3,0,6.6,34.405533,A,0.0094106,0.0094842,0.0097101,0.010365,0.0108,0.013743,0.018728,0.019216,0.02403,0.027956,0.031797,0.026035,0.014622,0.011534,0.0081486,0.0046617,0.0026157,0.00092303,0.00056698,0.00032628,0.00017198,0.00011372,8.97E-05,5.32E-05,4.48E-05,2.91E-05,2.09E-05,1.62E-05
338,66,KAP,4.3,0,6.6,29.169275,A,0.0096656,0.0098516,0.010503,0.012891,0.0167,0.02477,0.023756,0.027311,0.025471,0.03063,0.02561,0.023335,0.023888,0.0090033,0.0059653,0.0028541,0.0015199,0.00047056,0.00026361,0.00016174,9.29E-05,7.08E-05,5.78E-05,4.16E-05,2.66E-05,3.15E-05,2.48E-05,2.49E-05
339,66,ROO,4.3,0,6.6,163.87623,C,0.00083531,0.00083817,0.00084743,0.00088788,0.00095323,0.00096365,0.0010292,0.0010806,0.0012201,0.0012922,0.0013923,0.0022458,0.002665,0.0016054,0.0016339,0.00058334,0.0004436,0.00016657,9.53E-05,7.81E-05,5.69E-05,3.28E-05,3.48E-05,2.69E-05,1.91E-05,1.87E-05,2.28E-05,2.43E-05
340,67,GUW,3.9,0,35,41.276615,C,0.018799,0.0191,0.020214,0.024747,0.028301,0.037366,0.067555,0.059944,0.050464,0.044782,0.039602,0.036102,0.044045,0.030249,0.019637,0.01052,0.0052297,0.0013952,0.00077902,0.00050852,0.00029977,0.00019903,0.00015396,0.00010866,7.66E-05,5.50E-05,4.11E-05,3.51E-05
341,68,BON,4.4,0,20,73.150202,C,0.0065601,0.0065999,0.0067551,0.007288,0.0084012,0.0085776,0.0106,0.01304,0.010088,0.010287,0.010718,0.013643,0.022277,0.021693,0.021175,0.010366,0.0046707,0.0018575,0.00071559,0.00046234,0.00025673,0.00017873,0.00013905,8.99E-05,6.40E-05,4.80E-05,4.16E-05,2.58E-05
342,68,GUW,4.4,0,20,157.59588,C,0.0043689,0.0043877,0.0044773,0.0048171,0.0060565,0.0072844,0.0085776,0.0082763,0.0077864,0.0089591,0.0094207,0.011,0.015305,0.0097541,0.0059837,0.0063511,0.0042441,0.0011695,0.00052754,0.00038173,0.00031428,0.00018372,0.00013253,7.88E-05,5.96E-05,4.13E-05,3.78E-05,2.08E-05
343,68,KOK,4.4,0,20,55.929787,C,0.011859,0.011977,0.012317,0.013375,0.015651,0.021496,0.026676,0.028793,0.039887,0.035102,0.033622,0.021317,0.010758,0.013514,0.018907,0.014963,0.010305,0.0039075,0.0026972,0.0019422,0.0017227,0.0011867,0.00065736,0.00028748,0.00016638,0.00012518,9.05E-05,6.73E-05
344,69,BAR,6.5,0,167,948.91594,,0.0025024,0.0025076,0.0025229,0.0025618,0.0026736,0.0026128,0.002658,0.0027192,0.0029249,0.0030801,0.0031536,0.0057018,0.010268,0.0093235,0.0088461,0.0083222,0.006094,0.0016414,0.00093022,0.00063115,0.0004065,0.00040708,0.00038548,0.00028786,0.00020318,0.00013361,8.45E-05,6.01E-05
345,69,BHA,6.5,0,167,870.71568,,0.0041787,0.0041931,0.0042365,0.0042943,0.004455,0.004676,0.0047079,0.0048802,0.0053673,0.0066604,0.0068116,0.014272,0.024066,0.011456,0.0061913,0.0030927,0.0020328,0.0016411,0.00090496,0.00047909,0.00028355,0.00020359,0.00018002,0.00011532,7.03E-05,4.61E-05,4.33E-05,3.42E-05
346,69,CHA,6.5,0,167,664.50528,,0.0024619,0.002463,0.002469,0.0026105,0.002534,0.002598,0.0026813,0.002682,0.0025446,0.0025841,0.0025915,0.0032497,0.0028126,0.0037581,0.0052523,0.0065607,0.0099626,0.0066431,0.0027241,0.0015274,0.00082736,0.00045968,0.00037739,0.00027405,0.00018174,0.00011571,9.02E-05,5.05E-05
347,69,DNL,6.5,0,167,982.49327,,0.0038406,0.0038429,0.0038513,0.0038646,0.0038615,0.0039029,0.0039137,0.0039082,0.0039994,0.0040677,0.0042104,0.0048338,0.0056242,0.0061192,0.0076905,0.014128,0.011996,0.010537,0.0030341,0.0017073,0.0010894,0.00069986,0.00053775,0.00036707,0.00022853,0.00014455,9.79E-05,6.83E-05
348,69,KLG,6.5,0,167,727.80851,,0.0043899,0.0043962,0.0044281,0.0045788,0.0046858,0.0048705,0.0052019,0.00542,0.0054461,0.0056173,0.0060123,0.0090757,0.008764,0.01142,0.0094062,0.01383,0.012311,0.0065242,0.0027697,0.0017157,0.00084043,0.00049869,0.0003901,0.00026584,0.00014987,0.00011444,9.68E-05,6.92E-05
349,69,KSL,6.5,0,167,856.31617,,0.0030135,0.0030171,0.0030283,0.0030637,0.0030542,0.0030877,0.0030991,0.0032249,0.00328,0.0033824,0.0033973,0.0052818,0.0075431,0.0089904,0.0091619,0.01162,0.0079511,0.002639,0.0016831,0.0011519,0.00082325,0.00042994,0.00037251,0.00024533,0.00020047,0.00011283,9.96E-05,5.50E-05
350,69,KUL,6.5,0,167,781.31026,,0.0035482,0.003554,0.00357,0.0035817,0.003631,0.0036945,0.0036822,0.0039913,0.0042723,0.0042446,0.0048546,0.0068462,0.0060939,0.0056711,0.0080511,0.0085524,0.011759,0.0043492,0.003715,0.0021944,0.0010251,0.00063381,0.00044528,0.00034501,0.00022668,0.00017181,0.00011017,7.13E-05
351,69,MNL,6.5,0,167,764.58027,,0.0035849,0.0035917,0.0036136,0.0036695,0.0037194,0.0037541,0.0037694,0.0040195,0.0043729,0.0054907,0.0053688,0.0096374,0.009125,0.0092008,0.011512,0.010966,0.0096022,0.0051471,0.0049399,0.0023562,0.0010251,0.00052869,0.00048533,0.00027091,0.00016661,0.00013743,0.00012541,8.61E-05
352,69,SND,6.5,0,167,799.65329,,0.0036297,0.0036349,0.0036517,0.0036816,0.0036896,0.0037732,0.0037877,0.0039169,0.004046,0.0041923,0.0042166,0.0066274,0.010511,0.0089178,0.007763,0.011747,0.0089141,0.0053467,0.0029561,0.0013807,0.00086392,0.00069128,0.00061333,0.00038104,0.00024017,0.00017166,0.00013053,9.79E-05
353,70,KRM,4,0,15,96.52619,C,0.0037776,0.0037844,0.0038062,0.0039255,0.0039242,0.0039237,0.0040797,0.0041217,0.0042325,0.0049786,0.0056455,0.0082277,0.011909,0.012885,0.0089339,0.0034196,0.003217,0.001709,0.001148,0.00076748,0.00044927,0.00032695,0.00024796,0.0001649,9.78E-05,7.35E-05,5.86E-05,3.80E-05
354,70,NAU,4,0,15,161.85269,C,0.0066239,0.0066535,0.006745,0.0068701,0.0074323,0.0081953,0.01109,0.010061,0.012244,0.017376,0.015292,0.017923,0.024828,0.022116,0.010789,0.005155,0.0043663,0.0027744,0.0012846,0.0012131,0.00051652,0.00033692,0.00023171,0.00012177,9.24E-05,6.90E-05,4.88E-05,3.89E-05
362,73,CKR,5,0,10,35.1,B,0.0037717,0.0037843,0.0038274,0.0041249,0.0041921,0.0046703,0.0048049,0.005673,0.0064617,0.0073865,0.0068053,0.010849,0.011669,0.0078197,0.0066921,0.0049991,0.0054077,0.0020813,0.0020494,0.0013845,0.00070425,0.00047937,0.00037443,0.00019765,0.00011355,6.80E-05,5.22E-05,4.86E-05
363,73,DRC,5,0,10,254.76538,A,0.0066507,0.0067377,0.0073288,0.011714,0.011428,0.013107,0.014727,0.014488,0.013755,0.016996,0.021635,0.021721,0.010128,0.0074184,0.0053106,0.0024677,0.0015835,0.000385,0.00022595,0.00015147,0.00010114,7.26E-05,6.52E-05,3.48E-05,2.39E-05,2.27E-05,1.94E-05,1.52E-05
364,73,KLU,5,0,10,155.55091,A,0.0040416,0.0040555,0.0041077,0.0042727,0.0044298,0.0046864,0.0047756,0.0056889,0.0071909,0.0085981,0.0096608,0.015054,0.014787,0.009475,0.011144,0.0050849,0.0032281,0.0011354,0.00062912,0.00054444,0.00021726,0.00015211,0.00012498,6.83E-05,4.42E-05,2.98E-05,2.89E-05,2.89E-05
365,73,SND,5,0,10,142.45367,A,0.0067233,0.0067491,0.0068278,0.0069673,0.0075288,0.0080279,0.008095,0.0090336,0.011161,0.011479,0.011757,0.020097,0.029552,0.020147,0.013307,0.0090327,0.0059049,0.0021845,0.0010403,0.00052945,0.00032046,0.00020475,0.0001631,0.00010375,7.50E-05,4.89E-05,3.65E-05,2.81E-05
366,73,UTTA,5,0,10,28.58,A,0.010426,0.010513,0.010809,0.011316,0.013983,0.014948,0.01861,0.027648,0.033119,0.039273,0.032875,0.020434,0.016738,0.015093,0.0090768,0.0080259,0.0054807,0.0025531,0.0015374,0.0011478,0.00064692,0.00043508,0.00035442,0.00018721,0.00010021,6.79E-05,5.58E-05,4.71E-05
367,74,CHA,3.3,0,8,360.42811,A,0.0056254,0.0056655,0.0057985,0.0064215,0.0070761,0.0085245,0.010784,0.014274,0.013832,0.019945,0.023865,0.015402,0.0087268,0.0065719,0.0078235,0.0054782,0.0056054,0.0021595,0.00092524,0.00053784,0.00027122,0.00021204,0.00014755,9.05E-05,6.49E-05,4.10E-05,2.90E-05,2.36E-05
368,75,ALM,5.6,0,17.4,110.51666,A,0.010423,0.010456,0.010571,0.011182,0.011237,0.013077,0.014338,0.014124,0.017422,0.020471,0.023954,0.027914,0.030321,0.03324,0.029866,0.014357,0.010063,0.0083434,0.005146,0.0036679,0.0022425,0.0012585,0.00089007,0.00059889,0.00035184,0.00024254,0.00020729,0.00013124
369,75,BAG,5.6,0,17.4,99.53,A,0.010416,0.010443,0.010542,0.011182,0.012209,0.013134,0.016442,0.016087,0.017493,0.020789,0.020491,0.025809,0.027121,0.044122,0.040287,0.023587,0.012864,0.0055038,0.0036017,0.0022984,0.0012218,0.00090321,0.00073424,0.00035757,0.00028222,0.00022971,0.00015275,0.00012769
370,75,BAR,5.6,0,17.4,281.94621,A,0.0070527,0.0070646,0.0071013,0.0071662,0.0073233,0.0073168,0.0076198,0.007999,0.0079371,0.0080848,0.0087067,0.016822,0.020629,0.026194,0.023357,0.020564,0.0093202,0.0030057,0.0021067,0.0019859,0.00095513,0.00049873,0.00034869,0.00022386,0.00012146,8.83E-05,6.84E-05,4.87E-05
371,75,CHM,5.6,0,17.4,168.21462,A,0.014155,0.014168,0.014195,0.014293,0.014394,0.014686,0.014799,0.01514,0.015525,0.016028,0.018053,0.022827,0.030036,0.029917,0.038831,0.043846,0.043586,0.036458,0.019838,0.013611,0.0076633,0.0043521,0.0033735,0.0016517,0.00097691,0.0006764,0.0004879,0.0003024
372,75,CHP,5.6,0,17.4,71.4,A,0.023394,0.023457,0.023618,0.024345,0.024864,0.026067,0.028666,0.030118,0.031941,0.041495,0.05664,0.09626,0.079228,0.052053,0.029949,0.017484,0.0095305,0.0050703,0.0034305,0.0025029,0.0015417,0.001533,0.00098475,0.00052553,0.00038166,0.00027035,0.00021007,0.00015379
373,75,DDH,5.6,0,17.4,48.85,A,0.017963,0.018034,0.01826,0.019222,0.020192,0.025142,0.026568,0.032324,0.039868,0.033616,0.032199,0.036211,0.03855,0.045186,0.046063,0.042748,0.031586,0.012638,0.01045,0.0068212,0.0040065,0.0019077,0.0017015,0.0010303,0.00056971,0.00041407,0.00029225,0.00018531
374,75,DEH,5.6,0,17.4,276.45198,C,0.0032736,0.0032788,0.0032964,0.0033197,0.0033021,0.0034349,0.0034149,0.0036218,0.0038961,0.0040071,0.0042935,0.007709,0.0083584,0.013044,0.01414,0.010013,0.0065996,0.0027443,0.0018772,0.00125,0.00097234,0.00073769,0.00064821,0.00038468,0.00018556,0.00015077,0.00010529,5.99E-05
375,75,DNL,5.6,0,17.4,261.75713,A,0.0073895,0.0073973,0.0074221,0.0074524,0.0074952,0.0076594,0.0076404,0.0079518,0.0083741,0.0085482,0.0084829,0.012258,0.021771,0.019503,0.018602,0.025693,0.03291,0.0069597,0.0035504,0.0020398,0.0011792,0.00085186,0.00065815,0.0003173,0.00026848,0.00020059,0.0001316,7.94E-05
376,75,DRC,5.6,0,17.4,33.92,A,0.13561,0.13622,0.13867,0.14753,0.14629,0.16319,0.2288,0.19944,0.23718,0.21586,0.24144,0.30943,0.32021,0.37662,0.26928,0.21676,0.14116,0.053634,0.031269,0.019606,0.01084,0.0068897,0.0051634,0.0031017,0.002028,0.0014554,0.0011236,0.00073333
377,75,GAR,5.6,0,17.4,153.92822,A,0.019863,0.019898,0.020021,0.020315,0.020733,0.021639,0.023027,0.022166,0.025196,0.029428,0.034619,0.061369,0.055155,0.052182,0.050945,0.073099,0.048538,0.012912,0.0072853,0.0044009,0.0028713,0.0019318,0.001595,0.00092958,0.0005343,0.00035566,0.0002851,0.0001759
378,75,JSH,5.6,0,17.4,158.99942,A,0.010733,0.010751,0.010814,0.010931,0.010946,0.011539,0.011863,0.01226,0.012587,0.015219,0.016323,0.025964,0.023239,0.029642,0.025687,0.020707,0.017014,0.012434,0.0075427,0.0051326,0.002768,0.0018985,0.0015631,0.0008469,0.00050112,0.00032955,0.00021689,0.00013118
379,75,KHA,5.6,0,17.4,110.79866,C,0.023771,0.023807,0.023906,0.024247,0.025019,0.024997,0.026451,0.027651,0.031592,0.035195,0.037287,0.069302,0.061777,0.06298,0.06837,0.074223,0.041937,0.013173,0.0069128,0.006254,0.004002,0.0029028,0.0026229,0.0017672,0.0015099,0.00092477,0.00056172,0.00042613
