RSN,EQID,Station_Code,Magnitude,Fault_Mechanisc,depth,Joyner_Boore_Rjb,Soil_site_class,PGA,T0.010S,T0.020S,T0.030S,T0.040S,T0.050S,T0.060S,T0.070S,T0.080S,T0.090S,T0.100S,T0.150S,T0.200S,T0.250S,T0.300S,T0.400S,T0.500S,T0.800S,T1.000S,T1.200S,T1.500S,T1.800S,T2.000S,T2.500S,T3.000S,T3.500S,T4.000S,T5.000S
225,46,MUN,3.5,0,14,23.959581,A,0.0071266,0.0072285,0.0076311,0.0090751,0.012457,0.014516,0.020605,0.021311,0.015204,0.013167,0.0128,0.012828,0.0099395,0.0056815,0.0036776,0.0017993,0.0010525,0.00037875,0.00029291,0.00017127,9.87E-05,6.85E-05,5.92E-05,4.41E-05,2.72E-05,2.63E-05,2.43E-05,2.35E-05
240,49,BOK,6,0,16.1,149.67921,C,0.021609,0.021704,0.021978,0.023898,0.02862,0.029831,0.026638,0.037898,0.045316,0.053912,0.058123,0.066794,0.054001,0.061389,0.058692,0.032177,0.031953,0.018981,0.016149,0.011116,0.0085521,0.0041614,0.0037375,0.0018267,0.0011598,0.00086256,0.00061805,0.0003927
241,49,BON,6,0,16.1,131.12054,C,0.026936,0.026965,0.027055,0.027391,0.027264,0.028927,0.031571,0.035904,0.039796,0.043918,0.054711,0.039393,0.058265,0.06805,0.09168,0.08623,0.071107,0.037176,0.013853,0.0070001,0.0042626,0.0039291,0.0037986,0.0026167,0.0020981,0.0016255,0.0010429,0.00048194
242,49,COB,6,0,16.1,232.49878,C,0.016533,0.016542,0.01657,0.01661,0.016737,0.016789,0.016627,0.017345,0.017848,0.018809,0.019185,0.026951,0.03975,0.045065,0.049995,0.033965,0.036116,0.016195,0.01882,0.015386,0.010844,0.0093055,0.0073685,0.0049931,0.0035376,0.0025408,0.0017837,0.0012198
243,49,DIP,6,0,16.1,252.77443,B,0.013337,0.01338,0.013504,0.013852,0.014692,0.014672,0.016931,0.019735,0.019586,0.027109,0.033935,0.036426,0.041905,0.042261,0.029056,0.028309,0.019821,0.0054396,0.0074199,0.0061931,0.0038744,0.0023691,0.0016659,0.0011242,0.00062298,0.00077293,0.0005384,0.00045809
244,49,DJL,6,0,16.1,321.86508,A,0.0077431,0.0077506,0.0077739,0.007808,0.0078535,0.0079651,0.0079916,0.0082045,0.0085834,0.0086703,0.0099309,0.013176,0.014682,0.015965,0.024877,0.02091,0.020283,0.00616,0.0051029,0.0053438,0.0026376,0.0013664,0.0011182,0.0011952,0.00098428,0.00080685,0.00065973,0.00034237
245,49,GOL,6,0,16.1,154.55974,C,0.043141,0.043207,0.043436,0.044301,0.04484,0.050025,0.053524,0.056697,0.064076,0.065698,0.071262,0.12043,0.084717,0.086781,0.10976,0.10354,0.12403,0.040071,0.039103,0.041748,0.017127,0.0081031,0.0053958,0.0031901,0.0021148,0.0014828,0.0010197,0.00060907
246,49,GTK,6,0,16.1,283.80675,A,0.0054793,0.0054924,0.0055355,0.0056247,0.0058389,0.0058016,0.0062627,0.0072119,0.0083971,0.0087129,0.013102,0.012795,0.015754,0.011721,0.011059,0.011456,0.012129,0.0074185,0.0033999,0.0035935,0.0017034,0.00092546,0.00072987,0.00090022,0.00059791,0.00039974,0.00032486,0.00029292
247,49,GUW,6,0,16.1,125.84643,C,0.026361,0.026452,0.026717,0.026913,0.030334,0.03274,0.038873,0.039858,0.036781,0.038801,0.039934,0.051603,0.11271,0.068506,0.070264,0.05428,0.025511,0.0076362,0.0073216,0.0040315,0.0019186,0.0013417,0.0011722,0.00091113,0.0010551,0.00087432,0.00064621,0.00032921
248,49,KOK,6,0,16.1,158.88491,C,0.018495,0.018529,0.018628,0.01904,0.020589,0.022937,0.022203,0.025501,0.031817,0.032448,0.030038,0.035539,0.031062,0.049036,0.043502,0.048892,0.02919,0.019954,0.010851,0.010108,0.01002,0.0085766,0.0052516,0.0025548,0.001743,0.0011924,0.00079928,0.00049343
249,49,LKH,6,0,16.1,257.82918,C,0.0063994,0.0064043,0.0064165,0.0064513,0.0064695,0.0065857,0.0065307,0.0069349,0.0074576,0.0079825,0.0075628,0.0093036,0.012693,0.016411,0.015954,0.020239,0.021409,0.0086773,0.0095502,0.0064749,0.0054486,0.0033651,0.0024845,0.001458,0.0015574,0.001293,0.0010247,0.00084475
250,49,NAU,6,0,16.1,158.36173,C,0.015761,0.015778,0.015851,0.016084,0.016336,0.016476,0.017212,0.018832,0.021968,0.024109,0.027414,0.032471,0.037187,0.034313,0.042368,0.043802,0.028124,0.017434,0.021977,0.023751,0.014896,0.0086769,0.005645,0.002572,0.0024403,0.0020692,0.0021414,0.0011966
251,49,NON,6,0,16.1,199.12263,A,0.023827,0.023886,0.024064,0.024374,0.025622,0.027827,0.028884,0.034671,0.029568,0.032338,0.038995,0.044863,0.080444,0.068056,0.031831,0.028711,0.018792,0.013905,0.0083809,0.0035905,0.0021988,0.0012949,0.0010505,0.0007964,0.00068651,0.00050364,0.00035519,0.00021031
252,49,SLG,6,0,16.1,312.06192,C,0.011853,0.011875,0.011939,0.012103,0.012272,0.012473,0.012746,0.012958,0.013894,0.015248,0.016317,0.032953,0.029685,0.029894,0.03196,0.033417,0.021463,0.010595,0.0065113,0.0060032,0.0039922,0.0025405,0.0022548,0.0018842,0.0015213,0.0017067,0.001205,0.00086197
253,49,TZP,6,0,16.1,149.52869,B,0.015401,0.01542,0.015464,0.015795,0.016487,0.017177,0.016537,0.018939,0.021124,0.023962,0.025426,0.031491,0.03097,0.035006,0.048191,0.068688,0.02902,0.0053407,0.0040111,0.0030641,0.0018831,0.0014125,0.0010348,0.00053044,0.00043629,0.00031427,0.00027347,0.00017509
254,50,BAG,4.7,0,52.5,135.30423,A,0.0032853,0.0032995,0.0033448,0.0034083,0.0039236,0.0046247,0.00511,0.0052749,0.0053814,0.0063946,0.006359,0.007354,0.008029,0.0075106,0.0043959,0.0052486,0.0027171,0.0010269,0.00072248,0.00045879,0.00034362,0.0002058,0.00014788,9.10E-05,6.93E-05,4.57E-05,4.74E-05,2.19E-05
255,50,BAR,4.7,0,52.5,43.594981,A,0.019847,0.019947,0.020252,0.021362,0.022482,0.024068,0.02195,0.027349,0.028194,0.029456,0.033403,0.081226,0.059331,0.07274,0.051147,0.016616,0.0079481,0.0040226,0.0018237,0.0010696,0.00076282,0.00051816,0.00039847,0.00022535,0.00014247,0.00010959,8.51E-05,5.06E-05
256,50,BHA,4.7,0,52.5,133.02419,A,0.0074903,0.0075438,0.0077285,0.0081743,0.008338,0.0089379,0.0098793,0.013078,0.012902,0.014494,0.017683,0.029297,0.025106,0.020602,0.0097526,0.003137,0.0017422,0.00094279,0.00054203,0.00027972,0.00015738,0.00012098,0.00010108,6.84E-05,5.57E-05,4.15E-05,2.95E-05,2.17E-05
257,50,CHM,4.7,0,52.5,58.221413,A,0.012879,0.012925,0.01307,0.013421,0.013624,0.013928,0.015378,0.015826,0.017855,0.020621,0.02797,0.034755,0.016904,0.01953,0.027978,0.021276,0.01623,0.011601,0.0066088,0.003054,0.0013868,0.00079907,0.00066418,0.00039019,0.00026572,0.00016612,0.00012398,8.40E-05
258,50,DHA,4.7,0,52.5,97.482267,B,0.0064897,0.0065098,0.0065683,0.0067092,0.006925,0.00701,0.0077816,0.0079702,0.010391,0.013086,0.013907,0.018257,0.023489,0.02169,0.014831,0.0083498,0.0044215,0.0020813,0.0013375,0.00078934,0.0004566,0.00028203,0.00022266,0.00011458,7.33E-05,5.21E-05,3.78E-05,2.32E-05
259,50,GAR,4.7,0,52.5,105.44589,A,0.01498,0.015043,0.015263,0.015737,0.016378,0.020113,0.022597,0.026122,0.025582,0.02969,0.035307,0.062731,0.042151,0.032559,0.016661,0.013652,0.0065507,0.0028413,0.0016051,0.00093742,0.0006154,0.0003592,0.00024997,0.00016723,0.00010878,7.73E-05,6.54E-05,4.33E-05
260,50,GHAN,4.7,0,52.5,67.061382,A,0.019163,0.019251,0.01953,0.020162,0.021928,0.022546,0.0231,0.028009,0.032313,0.03637,0.038686,0.06154,0.076758,0.037921,0.02509,0.0080699,0.0055035,0.0014705,0.00093809,0.00064913,0.00036978,0.0002663,0.00022612,0.00014201,9.74E-05,7.43E-05,5.96E-05,3.80E-05
261,50,JUB,4.7,0,52.5,138.78698,A,0.0087446,0.0088038,0.0090177,0.0095207,0.010554,0.012479,0.01287,0.012516,0.016696,0.020138,0.021351,0.049801,0.012927,0.0084622,0.0040727,0.0016491,0.0010145,0.00050726,0.00033544,0.00021448,0.00015,9.30E-05,9.33E-05,6.85E-05,4.47E-05,3.78E-05,3.38E-05,2.28E-05
262,50,KAP,4.7,0,52.5,131.52609,A,0.008344,0.0083633,0.0084284,0.0084947,0.0087357,0.009171,0.010032,0.01143,0.013053,0.014265,0.015403,0.021242,0.031805,0.034777,0.015779,0.0069312,0.0042533,0.0013754,0.00078246,0.00049867,0.0002978,0.00021419,0.00017169,9.86E-05,7.05E-05,5.97E-05,5.20E-05,3.94E-05
263,50,LAN,4.7,0,52.5,124.63689,A,0.0049028,0.0049123,0.0049398,0.0050393,0.0051073,0.0052083,0.0054358,0.0054658,0.0062348,0.0067851,0.0067662,0.012342,0.014205,0.015436,0.0096085,0.0046502,0.004932,0.0028863,0.0013807,0.00084652,0.0006619,0.00050135,0.00036181,0.00023207,0.00013919,8.42E-05,5.46E-05,4.12E-05
264,50,RAM,4.7,0,52.5,152.18202,A,0.002987,0.0030022,0.0030589,0.0031551,0.0034149,0.003603,0.0040174,0.0042375,0.0045379,0.0049111,0.0053698,0.010245,0.005892,0.010395,0.010956,0.0034417,0.0015226,0.00056486,0.00042246,0.00033442,0.00026928,0.00023809,0.00027925,0.00016152,0.00014902,0.00017728,0.00022169,0.00014994
265,50,RUD,4.7,0,52.5,69.083722,A,0.011747,0.011847,0.012214,0.013194,0.013164,0.015832,0.022025,0.020984,0.025799,0.024315,0.022412,0.027632,0.024215,0.017562,0.019977,0.01337,0.0078823,0.0024755,0.0014105,0.0010766,0.00059043,0.00036015,0.00029798,0.00019743,0.00013495,8.78E-05,7.35E-05,4.61E-05
266,50,BAG,4.5,0,24.5,22.592306,A,0.0092828,0.0093667,0.0096257,0.0094991,0.011874,0.012414,0.015691,0.017054,0.017947,0.021751,0.024319,0.021846,0.018178,0.014949,0.017928,0.016552,0.010559,0.003084,0.0016294,0.001034,0.00059351,0.000375,0.000298,0.00018862,0.00013509,9.40E-05,6.56E-05,5.32E-05
267,50,CHP,4.5,0,24.5,76.432077,A,0.0019949,0.0020198,0.002107,0.0023816,0.0029074,0.0032437,0.004244,0.0054629,0.0060153,0.0066365,0.0068775,0.0069047,0.0042777,0.0025374,0.0019369,0.00085424,0.00054391,0.00012133,8.80E-05,6.14E-05,3.62E-05,3.09E-05,2.45E-05,3.10E-05,2.14E-05,2.47E-05,2.08E-05,2.24E-05
268,50,KAP,4.5,0,24.5,6.5613668,A,0.019652,0.019963,0.021023,0.028211,0.052522,0.051779,0.062232,0.041959,0.036448,0.047181,0.052774,0.040316,0.042163,0.047114,0.025018,0.010585,0.0078874,0.0023828,0.0011617,0.00080424,0.00050243,0.0003461,0.0002807,0.00018599,0.00013253,8.96E-05,7.84E-05,5.36E-05
269,51,BHA,6.3,0,168,856.11837,,0.0037587,0.0037681,0.0037926,0.0038867,0.0039996,0.0046004,0.0044908,0.004801,0.0053851,0.0067853,0.0067519,0.014099,0.021869,0.010593,0.0081678,0.0023746,0.0014334,0.00055871,0.00051431,0.00038472,0.00023949,0.00012224,0.00012248,7.68E-05,5.13E-05,3.98E-05,3.81E-05,2.49E-05
270,51,DEH,6.3,0,168,711.39908,,0.0016247,0.0016285,0.0016434,0.0017307,0.0016918,0.0018078,0.0019613,0.0023483,0.0028353,0.0031582,0.0033964,0.0050672,0.0046197,0.0053365,0.0063016,0.0035373,0.0022864,0.0010064,0.00081749,0.00078248,0.00051415,0.00030423,0.00026919,0.00023711,0.0001716,0.0001449,0.00011415,9.05E-05
271,51,KLG,6.3,0,168,712.9384,,0.0014059,0.0014192,0.0014632,0.0016133,0.0018843,0.0021682,0.0022977,0.0026271,0.0023821,0.0029171,0.0030453,0.0054274,0.0037055,0.0034942,0.0023707,0.0014388,0.00079227,0.00090029,0.00068459,0.00041402,0.00015121,9.65E-05,7.59E-05,6.78E-05,4.12E-05,3.88E-05,3.58E-05,2.29E-05
272,51,KSL,6.3,0,168,843.33845,,0.002247,0.0022505,0.0022606,0.0022947,0.0023035,0.0023567,0.0024447,0.002519,0.0025905,0.0026789,0.0028659,0.0050323,0.0069589,0.0086666,0.0077259,0.0070814,0.0039152,0.0013826,0.0011142,0.00097421,0.00057705,0.00035712,0.00026219,0.00024632,0.00021295,0.00015403,8.74E-05,5.23E-05
273,51,RAM,6.3,0,168,843.23407,,0.0028267,0.0028342,0.0028578,0.0029947,0.0029866,0.0031234,0.0034404,0.0035088,0.003982,0.0041179,0.0037947,0.0067213,0.0061765,0.011389,0.012161,0.0042947,0.0019874,0.00082439,0.00084673,0.00058759,0.0005767,0.00050341,0.00045757,0.00035183,0.00041911,0.00039136,0.00034771,0.00030344
274,52,KLG,6.3,0,168,712.9384,,0.0030289,0.0030466,0.0031098,0.0032792,0.0034319,0.0040067,0.0043274,0.0044249,0.0046296,0.0052083,0.0047921,0.0063611,0.0069266,0.0078518,0.0064057,0.0051619,0.0037221,0.002616,0.0017945,0.0010355,0.00045061,0.00025935,0.00017854,0.00011499,9.30E-05,5.88E-05,5.44E-05,3.42E-05
275,53,BON,5.2,0,24.7,124.22159,C,0.0070972,0.0071076,0.0071411,0.0071944,0.0073546,0.0078385,0.0081047,0.0085324,0.0094741,0.010666,0.012118,0.01156,0.014654,0.030372,0.024066,0.016119,0.012805,0.0059205,0.0025577,0.0012943,0.00065586,0.00050499,0.00038735,0.00020717,0.00014313,0.00011558,8.94E-05,5.95E-05
276,53,GOL,5.2,0,24.7,149.16045,C,0.013367,0.013402,0.013511,0.013866,0.01427,0.01426,0.015926,0.017855,0.018742,0.02321,0.025415,0.040471,0.037394,0.034035,0.045443,0.018156,0.021338,0.0082078,0.0067028,0.0042118,0.001575,0.00084455,0.00062049,0.0004035,0.00027074,0.00019637,0.00014834,9.43E-05
277,53,KOK,5.2,0,24.7,151.27917,C,0.00515,0.0051563,0.0051736,0.0052354,0.0053995,0.0054505,0.0062318,0.0060804,0.0075489,0.0073815,0.0068349,0.0080675,0.0096667,0.014164,0.017993,0.014113,0.0091656,0.0041817,0.001989,0.0013836,0.00078987,0.00057971,0.00045908,0.00023589,0.00012871,9.83E-05,7.99E-05,5.61E-05
278,53,NON,5.2,0,24.7,198.17981,A,0.0089093,0.0089363,0.0090115,0.0091933,0.00957,0.010123,0.010693,0.010936,0.011392,0.013942,0.013651,0.024572,0.043054,0.016869,0.011991,0.0064575,0.0043065,0.0021116,0.0011162,0.00077783,0.00048418,0.00030046,0.00024742,0.00015239,0.00011128,7.01E-05,5.26E-05,4.41E-05
279,53,SAS,5.2,0,24.7,231.51115,B,0.016053,0.016074,0.016138,0.016265,0.016514,0.016549,0.016701,0.017305,0.018272,0.017958,0.018827,0.024958,0.054298,0.05463,0.055902,0.054487,0.036066,0.0056767,0.0033661,0.0018813,0.0011397,0.00078212,0.00061219,0.00040051,0.00026896,0.00020125,0.00015463,0.00010812
280,54,GOL,4.2,0,10,79.989781,C,0.01894,0.019279,0.020402,0.023635,0.029682,0.045723,0.049233,0.072354,0.044244,0.043072,0.044734,0.052341,0.034332,0.022768,0.020923,0.012458,0.0067443,0.0022886,0.0018695,0.0012631,0.00055643,0.00033786,0.00026006,0.00014272,0.00010268,7.93E-05,5.48E-05,4.03E-05
281,54,KOK,4.2,0,10,34.210833,C,0.031331,0.03178,0.033417,0.042956,0.060026,0.07547,0.075996,0.064198,0.079979,0.097355,0.06488,0.083079,0.042303,0.033509,0.029144,0.017062,0.0095606,0.0026577,0.0015342,0.0010218,0.00069909,0.00040923,0.00031689,0.00021134,0.00015245,0.00011666,8.62E-05,5.10E-05
282,54,NON,4.2,0,10,174.51921,A,0.0079086,0.0079456,0.0080611,0.0083672,0.0088942,0.0091431,0.010355,0.010304,0.013238,0.012919,0.014883,0.022942,0.038824,0.013116,0.0071733,0.0030397,0.0015603,0.00055009,0.00031758,0.0002074,0.0001289,0.00010273,8.05E-05,5.10E-05,3.73E-05,2.74E-05,2.53E-05,1.90E-05
283,54,SAS,4.2,0,10,123.09045,B,0.0089088,0.0089488,0.0090784,0.0092338,0.01021,0.011986,0.01127,0.015351,0.01354,0.015226,0.015933,0.022241,0.034219,0.034407,0.01926,0.010984,0.0054888,0.0015626,0.00082128,0.00051196,0.00032634,0.00022391,0.00017549,0.00011578,8.47E-05,6.94E-05,5.44E-05,3.90E-05
284,55,RAM,5.4,0,66.3,484.94352,A,0.0024779,0.0024953,0.0025566,0.0027044,0.0031764,0.003512,0.0038962,0.0052255,0.0057898,0.0055306,0.0065651,0.0060814,0.0041059,0.0053204,0.0067768,0.0012979,0.00071098,0.00020374,0.00011707,7.94E-05,5.72E-05,4.47E-05,3.85E-05,3.26E-05,2.56E-05,1.95E-05,2.12E-05,2.27E-05
291,57,BON,5.4,0,7,124.22159,C,0.012518,0.012563,0.012707,0.013079,0.013603,0.01458,0.014452,0.015095,0.018405,0.018984,0.019868,0.024511,0.026306,0.03297,0.040676,0.024584,0.02116,0.0081028,0.003145,0.0017522,0.0008956,0.00063575,0.00053127,0.00031833,0.00023411,0.00016195,0.00012019,9.29E-05
292,57,GOL,5.4,0,7,149.16045,C,0.0098479,0.0099006,0.010111,0.011011,0.011975,0.01551,0.017674,0.019345,0.020317,0.025701,0.026513,0.029469,0.034946,0.033153,0.030669,0.018604,0.015614,0.0090245,0.0057776,0.0042143,0.0014573,0.00085189,0.00064495,0.00037987,0.00024143,0.00015891,0.00011509,9.84E-05
293,57,GUW,5.4,0,7,128.16684,C,0.0084103,0.0084676,0.0086679,0.0092709,0.01019,0.013932,0.01617,0.014669,0.014552,0.016679,0.021246,0.017508,0.02871,0.020623,0.018498,0.014062,0.0082042,0.0049249,0.0021041,0.0012234,0.00051369,0.00037827,0.00030755,0.00022714,0.00016718,0.00011665,7.65E-05,4.61E-05
294,57,KOK,5.4,0,7,151.27917,C,0.010856,0.010876,0.010936,0.010995,0.011304,0.012009,0.013379,0.012818,0.014193,0.015868,0.016875,0.02667,0.024784,0.033646,0.034212,0.042409,0.018904,0.0086307,0.0044393,0.0024189,0.0018856,0.001005,0.00073953,0.00044475,0.00027978,0.00020389,0.00013145,9.00E-05
295,57,TUR,5.4,0,7,231.51115,B,0.016491,0.016508,0.016558,0.016723,0.016839,0.017142,0.017103,0.017613,0.01814,0.018512,0.019582,0.026814,0.044278,0.049331,0.058204,0.038752,0.047925,0.0061244,0.0031536,0.0020719,0.0012566,0.00082064,0.00064786,0.0004065,0.00026245,0.00019441,0.0001552,9.00E-05
296,58,CHP,4,0,13.7,41.727263,A,0.0018721,0.0018813,0.0019125,0.0020061,0.0021517,0.0025764,0.0030056,0.0037212,0.0037955,0.0036915,0.0039222,0.007511,0.0081823,0.0048701,0.0024371,0.0011349,0.00062823,0.00017775,0.00010603,7.25E-05,5.00E-05,3.76E-05,2.86E-05,2.40E-05,1.86E-05,1.68E-05,2.22E-05,1.57E-05
297,58,DHA,4,0,13.7,55.139211,A,0.0080526,0.008173,0.008531,0.010009,0.010599,0.011585,0.012816,0.014523,0.017451,0.017466,0.018056,0.01946,0.010789,0.0062035,0.0044363,0.003978,0.0017111,0.00057098,0.00039348,0.00031693,0.00023877,0.00018844,0.00016841,0.00012865,0.00010727,7.89E-05,7.09E-05,7.10E-05
298,58,PIT,4,0,13.7,24.119693,A,0.015643,0.015768,0.016167,0.017809,0.018522,0.020348,0.024255,0.036218,0.04573,0.047896,0.062562,0.052163,0.019411,0.0078647,0.0052081,0.002141,0.0012162,0.00049707,0.00029451,0.00018973,0.00011903,8.96E-05,7.31E-05,5.23E-05,4.77E-05,4.47E-05,2.68E-05,2.00E-05
299,59,BAG,4.6,0,20.5,36.966082,A,0.017775,0.017854,0.018052,0.018498,0.019236,0.021876,0.02406,0.025523,0.035233,0.034929,0.039886,0.029974,0.025039,0.022276,0.027674,0.018638,0.017079,0.0058537,0.0033156,0.0020405,0.0011262,0.00063134,0.00045753,0.00030505,0.00020889,0.0001513,0.00010758,8.60E-05
300,59,CHP,4.6,0,20.5,74.059197,A,0.0028879,0.0029126,0.0030022,0.0032075,0.003379,0.0035992,0.0042,0.0047314,0.0052256,0.0058895,0.0055901,0.0094905,0.0091906,0.0073601,0.0051114,0.0036097,0.0027117,0.00097295,0.00046434,0.00029913,0.00017504,9.97E-05,7.39E-05,4.62E-05,4.12E-05,3.40E-05,2.55E-05,1.54E-05
301,59,DHA,4.6,0,20.5,184.18219,A,0.006078,0.0061378,0.0063367,0.0072707,0.0082549,0.0091579,0.01351,0.011657,0.015167,0.0164,0.017457,0.020843,0.0097475,0.0063576,0.0048446,0.002557,0.00107,0.00039714,0.00033116,0.00024004,0.0001728,0.00014291,0.00013015,0.00010186,7.83E-05,7.30E-05,6.77E-05,5.06E-05
302,59,KAP,4.6,0,20.5,20.4488,A,0.029926,0.030518,0.032454,0.041934,0.053694,0.073169,0.077286,0.11183,0.08273,0.080998,0.047521,0.045666,0.036985,0.040493,0.032393,0.022425,0.014362,0.0044957,0.0025826,0.0017864,0.0011429,0.00061274,0.00049971,0.00030906,0.00020592,0.00016549,0.00013958,8.57E-05
303,59,ROO,4.6,0,20.5,212.56863,C,0.00098355,0.00098566,0.00099373,0.0010007,0.0010265,0.0010407,0.0010854,0.0011973,0.0012986,0.0015987,0.0016835,0.0028225,0.0047242,0.0026316,0.0018548,0.0018819,0.0015831,0.0012604,0.00069401,0.00047252,0.00035326,0.00025418,0.00015275,0.00011327,5.95E-05,5.06E-05,4.20E-05,3.47E-05
304,59,UDH,4.6,0,20.5,130.51653,C,0.0032369,0.0032443,0.0032719,0.0033168,0.0033983,0.0033598,0.003742,0.0042731,0.0046218,0.0048447,0.0047286,0.0090615,0.0080605,0.008445,0.0073912,0.0055137,0.0042231,0.001798,0.0012652,0.00091528,0.00085553,0.00050966,0.00033885,0.00021348,0.00011783,8.07E-05,8.07E-05,4.94E-05
305,60,BON,5.5,0,79,445.52409,C,0.002694,0.0026992,0.0027169,0.0027598,0.0027803,0.0029023,0.003002,0.0033131,0.003866,0.0046258,0.0051564,0.0064601,0.0081103,0.010411,0.0092821,0.0063054,0.0041444,0.0024436,0.0007661,0.00047541,0.00028079,0.00017673,0.00013447,8.18E-05,5.40E-05,4.24E-05,3.32E-05,2.22E-05
306,60,DJL,5.5,0,79,223.44152,A,0.0034907,0.0035074,0.0035574,0.0041274,0.0043866,0.0051095,0.0050703,0.0055084,0.0082637,0.0098397,0.0089322,0.0090373,0.0072694,0.013176,0.010062,0.0070901,0.0055994,0.0013552,0.0006149,0.00040336,0.00020753,0.00014779,0.00012164,8.90E-05,6.49E-05,4.79E-05,3.83E-05,2.97E-05
307,60,GLP,5.5,0,79,470.95409,C,0.0050993,0.0051188,0.0051851,0.0053842,0.00557,0.0057395,0.0063895,0.0066762,0.0084603,0.0096247,0.010229,0.016648,0.013773,0.0123,0.010101,0.0057269,0.0051994,0.001549,0.0018492,0.0014704,0.0004672,0.00023351,0.00016387,0.00010843,7.39E-05,5.03E-05,4.07E-05,3.36E-05
308,60,GTK,5.5,0,79,229.16671,A,0.0039654,0.0040027,0.0041254,0.0043221,0.0055522,0.0057051,0.0071941,0.010221,0.0096214,0.012472,0.013305,0.013928,0.0078168,0.0053835,0.0045315,0.0020635,0.001705,0.00078118,0.00056644,0.00028563,0.00013444,8.61E-05,7.23E-05,4.49E-05,3.26E-05,3.07E-05,2.71E-05,2.28E-05
