RSN,EQID,Station_Code,Magnitude,Fault_Mechanisc,depth,Joyner_Boore_Rjb,Soil_site_class,PGA,T0.010S,T0.020S,T0.030S,T0.040S,T0.050S,T0.060S,T0.070S,T0.080S,T0.090S,T0.100S,T0.150S,T0.200S,T0.250S,T0.300S,T0.400S,T0.500S,T0.800S,T1.000S,T1.200S,T1.500S,T1.800S,T2.000S,T2.500S,T3.000S,T3.500S,T4.000S,T5.000S
446,93,PTI,4.4,0,10,86.872657,A,0.0027502,0.0027683,0.0028319,0.0030315,0.0032356,0.0044614,0.004578,0.0046918,0.0050221,0.0064052,0.0051879,0.0061938,0.013317,0.0074127,0.0049341,0.0023733,0.0011814,0.00040744,0.00021482,0.00011966,7.95E-05,6.26E-05,5.40E-05,4.00E-05,3.06E-05,3.16E-05,3.28E-05,3.37E-05
447,93,TAN,4.4,0,10,88.836049,C,0.0022845,0.0022984,0.0023452,0.0024456,0.0025839,0.0028184,0.003369,0.0036081,0.0039228,0.0043156,0.0043758,0.0091317,0.0043394,0.0033332,0.0015692,0.00062787,0.00053847,0.00029581,0.00017956,0.00012051,0.0001094,8.50E-05,7.02E-05,5.68E-05,3.07E-05,3.08E-05,2.75E-05,1.89E-05
452,95,ARI,5,0,28.8,32.03,C,0.030098,0.03022,0.030596,0.030978,0.033739,0.037241,0.044238,0.065257,0.079135,0.066652,0.050413,0.058031,0.075431,0.056657,0.054825,0.050163,0.038695,0.012366,0.0072366,0.0045178,0.0025819,0.0017174,0.0012812,0.0007744,0.00054646,0.00040622,0.00029656,0.00020515
453,96,LKH,4.4,0,15,102.37408,C,0.0047964,0.004815,0.0048678,0.0049976,0.0051047,0.005302,0.0053599,0.0061599,0.0072906,0.0093546,0.013148,0.010912,0.01646,0.014301,0.0084084,0.0029765,0.0017491,0.00062821,0.0004008,0.00024476,0.00015859,0.00010222,9.03E-05,5.51E-05,3.59E-05,3.19E-05,3.34E-05,2.78E-05
454,97,GOL,5.2,0,20,95.2,B,0.014159,0.014307,0.014829,0.016638,0.022818,0.032101,0.033069,0.034457,0.044446,0.051124,0.062004,0.033564,0.014483,0.0078196,0.0073298,0.0048223,0.0033149,0.0016515,0.0016268,0.0010996,0.00078527,0.00088373,0.0010753,0.00090658,0.00088304,0.00077676,0.0005723,0.00022224
455,97,JHR,5.2,0,20,121.04066,C,0.0073906,0.0074453,0.00765,0.0083078,0.0088183,0.010356,0.012709,0.01351,0.015655,0.017209,0.020569,0.017516,0.022872,0.013748,0.01257,0.0087671,0.0046155,0.0016053,0.0013717,0.00087937,0.00046085,0.00045854,0.00046124,0.00036625,0.00025886,0.00020498,0.00016278,0.00010246
456,97,KOK,5.2,0,20,273.70704,C,0.007537,0.0075592,0.0076273,0.008025,0.010252,0.011578,0.01307,0.014084,0.015395,0.015736,0.013305,0.014827,0.018611,0.026044,0.032275,0.024601,0.011839,0.0052628,0.0037599,0.0028131,0.0025281,0.0012904,0.00084296,0.0004185,0.00029881,0.00030223,0.00029006,0.00028318
460,99,NAU,4.7,0,51.4,53.520964,C,0.0066471,0.0067368,0.0071135,0.0080528,0.011082,0.012578,0.018558,0.020401,0.018514,0.020443,0.016731,0.016271,0.010042,0.010145,0.0073481,0.0051061,0.0037731,0.0011477,0.00053117,0.00036348,0.00021109,0.00012912,0.00010556,6.75E-05,5.23E-05,3.79E-05,3.37E-05,2.40E-05
464,101,PTI,4.6,0,16.5,81.306412,A,0.0027062,0.0027171,0.0027593,0.0028363,0.0033217,0.003395,0.0042922,0.003731,0.0046369,0.0048146,0.0060402,0.0081862,0.011674,0.010752,0.0045553,0.0017938,0.0010222,0.00031492,0.00016027,0.00011581,9.27E-05,5.45E-05,4.97E-05,4.52E-05,4.13E-05,3.38E-05,3.87E-05,3.82E-05
465,102,KSL,5.4,0,27.5,533.77459,B,0.0018599,0.0018627,0.0018751,0.0018911,0.0019924,0.0019609,0.0019787,0.0019839,0.0019732,0.0020379,0.0021138,0.0028605,0.0041349,0.0059126,0.0067252,0.0064971,0.0043552,0.00077808,0.00042883,0.00028696,0.00015902,9.85E-05,7.33E-05,4.27E-05,3.12E-05,2.85E-05,2.67E-05,1.80E-05
466,103,TZP,4.8,0,41,30.868441,B,0.021343,0.021713,0.023283,0.035272,0.046717,0.047968,0.044159,0.05607,0.070251,0.041322,0.035812,0.045011,0.019877,0.016812,0.019903,0.023277,0.011973,0.0026292,0.001464,0.0010014,0.00053004,0.00032308,0.00024925,0.00016223,1.00E-04,8.32E-05,6.32E-05,4.19E-05
467,104,TZP,4,0,57,21.555978,B,0.010065,0.010354,0.01153,0.014859,0.024666,0.026605,0.03375,0.029884,0.026334,0.019089,0.014286,0.0048894,0.0021411,0.0022665,0.0024107,0.0025431,0.001329,0.000469,0.00027888,0.00018291,9.38E-05,6.68E-05,5.19E-05,3.83E-05,3.37E-05,2.41E-05,2.05E-05,2.16E-05
468,105,CHP,5,0,28.5,273.04639,A,0.0017985,0.0018053,0.0018284,0.0018671,0.001908,0.0019444,0.0021626,0.0023057,0.002565,0.0027906,0.0035084,0.0067236,0.0099183,0.0043556,0.00286,0.0021644,0.0010139,0.00058193,0.00031424,0.00016792,0.00013134,8.08E-05,6.59E-05,3.29E-05,2.79E-05,2.61E-05,2.50E-05,1.93E-05
469,105,PTI,5,0,28.5,290.66225,A,0.0028816,0.0028884,0.0029159,0.002978,0.0030428,0.0032521,0.0034658,0.0035921,0.0039192,0.0041289,0.0046601,0.0085514,0.012525,0.008871,0.0056984,0.0021049,0.0011648,0.00044874,0.00038732,0.00026596,0.00015567,0.00014332,9.96E-05,6.08E-05,4.53E-05,3.72E-05,3.93E-05,3.84E-05
470,105,UDH,5,0,28.5,327.45051,C,0.0015329,0.0015363,0.0015493,0.0015651,0.0015797,0.0016126,0.0016719,0.0017926,0.0017497,0.0018182,0.0020852,0.0040802,0.0038293,0.0043666,0.0045938,0.0037109,0.0018545,0.00081987,0.00055692,0.0004785,0.00026734,0.00016312,0.00014866,7.84E-05,6.40E-05,5.31E-05,3.36E-05,2.57E-05
471,106,CHA,4.6,0,19.1,30.928507,A,0.0073183,0.0074782,0.0080697,0.010049,0.013403,0.017981,0.01755,0.013853,0.014086,0.016732,0.020134,0.022713,0.011245,0.010121,0.0076569,0.0035771,0.002172,0.00049457,0.0003096,0.00020517,0.00011744,8.77E-05,6.46E-05,4.32E-05,3.63E-05,3.05E-05,2.72E-05,2.58E-05
472,106,CHA,4.6,0,19.1,32.710671,A,0.01318,0.013354,0.013855,0.017701,0.021148,0.027262,0.030609,0.037338,0.043047,0.040459,0.030426,0.042286,0.024754,0.015412,0.010857,0.0051173,0.0045835,0.00093641,0.00052035,0.00031627,0.00019195,0.00015808,0.00011489,0.00010028,8.10E-05,6.24E-05,4.54E-05,2.58E-05
473,106,RAM,4.6,0,19.1,157.77919,A,0.0028174,0.0028276,0.002862,0.0029477,0.0030528,0.0030058,0.0036963,0.0043246,0.0042034,0.0051842,0.0053192,0.0048689,0.0048029,0.0080497,0.0076094,0.0045866,0.0015283,0.00043274,0.00031694,0.00021726,0.00012176,8.26E-05,5.92E-05,3.34E-05,3.31E-05,2.29E-05,2.39E-05,2.61E-05
474,107,NAU,5.2,0,36.8,60.3,C,0.009456,0.0095376,0.0098418,0.011864,0.012834,0.015869,0.020749,0.023033,0.031968,0.031716,0.028593,0.023923,0.01361,0.011375,0.015309,0.015458,0.0094287,0.009589,0.0053314,0.0024545,0.00127,0.0006884,0.00060934,0.00034754,0.00023328,0.00019435,0.00016261,9.38E-05
475,107,SBS,5.2,0,36.8,181.69733,C,0.0033371,0.0033398,0.0033458,0.0033928,0.0035086,0.003522,0.0039766,0.0046376,0.004137,0.0052102,0.0051729,0.011083,0.010245,0.0092,0.013246,0.008349,0.0082649,0.0015489,0.00089046,0.00054117,0.00034172,0.00026062,0.00020219,0.00011057,7.78E-05,6.30E-05,5.79E-05,5.58E-05
476,108,CHA,3.8,0,5,23.728185,A,0.0031367,0.0031919,0.0033971,0.0051425,0.0069584,0.0084572,0.0099589,0.008063,0.010547,0.0087217,0.0092331,0.0045584,0.0015799,0.0015384,0.0016446,0.0013969,0.00088031,0.00019803,0.00011151,7.08E-05,3.99E-05,2.95E-05,2.76E-05,2.89E-05,2.54E-05,2.33E-05,2.01E-05,1.60E-05
477,108,CHA,3.6,0,10,23.728185,A,0.0030788,0.0031557,0.0034356,0.0058198,0.007569,0.012431,0.01091,0.0085985,0.010663,0.0090723,0.0061342,0.0046944,0.0054109,0.0052911,0.0030729,0.0016225,0.0013263,0.00027849,0.00015732,0.00011718,5.90E-05,4.43E-05,4.26E-05,2.97E-05,2.97E-05,2.99E-05,2.45E-05,2.00E-05
478,109,CHA,3.4,0,10,23.728185,A,0.0018322,0.0018677,0.0019951,0.0022797,0.0028339,0.0050089,0.0042387,0.0053107,0.0060897,0.0052073,0.0050669,0.003724,0.0018538,0.0014338,0.0011046,0.00067049,0.00041232,8.22E-05,5.57E-05,4.70E-05,3.12E-05,3.37E-05,3.00E-05,2.69E-05,2.54E-05,2.16E-05,1.93E-05,2.18E-05
480,111,CHA,3.9,0,5,29.191304,A,0.0026452,0.0027243,0.0030617,0.0052455,0.0068862,0.008732,0.0082841,0.0070539,0.0080537,0.0063335,0.0060847,0.0058018,0.0030705,0.0023976,0.0019624,0.00077019,0.00061423,0.00015107,8.94E-05,7.12E-05,4.23E-05,3.42E-05,3.00E-05,2.25E-05,2.25E-05,2.00E-05,1.73E-05,1.95E-05
481,112,CHP,4.8,0,37.1,137.01212,A,0.0034991,0.0035147,0.0035643,0.0036137,0.003797,0.0040878,0.0050874,0.0050932,0.0055403,0.005919,0.0059036,0.01433,0.0087982,0.0038926,0.0039181,0.0019611,0.0013591,0.00052031,0.00027491,0.00021091,0.00013834,9.90E-05,8.55E-05,4.88E-05,2.64E-05,2.30E-05,2.05E-05,2.26E-05
482,112,PTH,4.8,0,37.1,131.95122,A,0.0031928,0.0032162,0.0032915,0.0034686,0.003828,0.0042594,0.0053694,0.0072832,0.0087844,0.012263,0.013093,0.011272,0.0062009,0.0038989,0.0031882,0.0014397,0.0010205,0.00036025,0.00026237,0.00022853,0.00012662,9.75E-05,6.42E-05,3.54E-05,2.86E-05,2.54E-05,2.42E-05,2.73E-05
483,112,PTI,4.8,0,37.1,153.72134,A,0.0047077,0.0047176,0.0047452,0.0048988,0.0051861,0.0054332,0.0060257,0.0068943,0.0068521,0.0084665,0.0089974,0.011644,0.017317,0.019033,0.0086282,0.0033444,0.0019632,0.00070903,0.00041575,0.00023886,0.00013249,0.00010913,9.78E-05,7.09E-05,5.60E-05,4.15E-05,4.09E-05,4.09E-05
484,113,CHA,4,0,10,29.191304,A,0.0022656,0.0022872,0.0023675,0.0027832,0.0043513,0.004683,0.0046852,0.0057697,0.007636,0.0063311,0.0044998,0.0090927,0.0040228,0.0035323,0.003521,0.0024856,0.0012436,0.00030216,0.00016828,0.00010934,6.24E-05,5.91E-05,4.92E-05,2.97E-05,3.08E-05,2.32E-05,1.98E-05,1.97E-05
485,114,KAP,3,0,5,34.706796,A,0.0052486,0.0053703,0.0057973,0.0094373,0.011043,0.010754,0.014108,0.016156,0.017378,0.017078,0.015202,0.012209,0.006703,0.0030359,0.0020084,0.0010563,0.00056853,0.00016909,0.00011844,7.00E-05,5.91E-05,4.30E-05,3.26E-05,2.72E-05,2.04E-05,2.26E-05,1.87E-05,2.01E-05
486,115,CKR,4.4,0,23.4,52.927783,B,0.0038444,0.003855,0.0038874,0.0040514,0.0042448,0.0047521,0.0046696,0.0044691,0.0056074,0.0066161,0.0078828,0.012166,0.020257,0.0097045,0.0059013,0.0035913,0.0024043,0.00066375,0.0003186,0.00026926,0.00013409,8.55E-05,7.49E-05,4.67E-05,3.76E-05,3.08E-05,2.27E-05,1.80E-05
487,115,DNL,4.4,0,23.4,54.682015,A,0.0041927,0.0042101,0.0042706,0.0044387,0.004734,0.005005,0.0049751,0.0065021,0.005805,0.0067406,0.0080128,0.008879,0.011085,0.011239,0.012975,0.012016,0.005213,0.0028879,0.0016464,0.00076779,0.00038744,0.00028498,0.00021582,0.00011537,7.52E-05,7.21E-05,5.89E-05,4.81E-05
488,115,TEH,4.4,0,23.4,58.560711,A,0.0027619,0.0027726,0.0028027,0.0028671,0.003175,0.0036874,0.0044415,0.0045626,0.0057177,0.0049884,0.0053983,0.0083137,0.0076684,0.0052676,0.0057916,0.0039369,0.0027499,0.0010991,0.00054243,0.00038416,0.00027201,0.00021073,0.0001573,9.35E-05,6.46E-05,4.34E-05,4.02E-05,2.54E-05
489,115,UTTA,4.4,0,23.4,19.386769,A,0.050278,0.050743,0.052436,0.05878,0.056687,0.074318,0.092748,0.12123,0.15416,0.1935,0.18326,0.097524,0.089159,0.054324,0.049631,0.022724,0.014003,0.0039437,0.0020399,0.0012786,0.00084579,0.00060899,0.00048795,0.00033834,0.00023091,0.00016779,0.00012099,9.49E-05
490,116,PTH,4.7,0,10,88.622306,A,0.0033625,0.0033799,0.003435,0.0035209,0.0037845,0.0039937,0.0045684,0.0058353,0.0063806,0.0073072,0.0085404,0.013029,0.0074173,0.0041516,0.0021923,0.0010629,0.00066157,0.00024773,0.00017243,0.00010061,6.63E-05,4.41E-05,3.88E-05,2.74E-05,2.25E-05,1.74E-05,1.83E-05,1.93E-05
491,116,PTI,4.7,0,10,113.2435,A,0.0030603,0.0030684,0.0030938,0.0031795,0.0032906,0.0036654,0.0039552,0.0040828,0.0047329,0.0052843,0.0055879,0.0095962,0.012806,0.013436,0.0050777,0.0021712,0.0012515,0.00042846,0.00024767,0.00014977,0.00010544,8.24E-05,5.72E-05,4.71E-05,3.70E-05,3.88E-05,3.43E-05,3.71E-05
492,117,TIN,4.2,0,10,121.52159,C,0.0052825,0.0053085,0.005387,0.0055111,0.0056121,0.0056138,0.0060855,0.0070345,0.0088327,0.0099437,0.011163,0.011324,0.01092,0.010285,0.0079385,0.0034301,0.0026387,0.0013861,0.0006654,0.0005126,0.00030189,0.00017819,0.00013578,8.69E-05,5.78E-05,4.97E-05,3.56E-05,2.66E-05
497,119,PTH,3.5,0,5,60.866222,A,0.0063902,0.0064437,0.0066086,0.0068616,0.0070124,0.0084906,0.010549,0.011987,0.015205,0.023151,0.025057,0.026152,0.0078423,0.0034575,0.0017541,0.00090933,0.00048841,0.00017898,0.00011808,7.78E-05,5.39E-05,4.37E-05,3.58E-05,2.49E-05,2.24E-05,1.75E-05,2.02E-05,1.96E-05
498,120,PTH,3.8,0,7,142.61306,A,0.0035707,0.0036021,0.0037075,0.003992,0.0045038,0.004709,0.0058759,0.0077102,0.0085176,0.011563,0.016681,0.014603,0.0051102,0.0024027,0.0012808,0.00053929,0.00041584,0.00015286,0.00011405,6.17E-05,4.15E-05,3.43E-05,3.18E-05,2.35E-05,2.60E-05,1.96E-05,2.42E-05,2.23E-05
499,121,CKR,4.6,0,5,58.60404,B,0.0024016,0.0024145,0.0024588,0.0026768,0.0029119,0.0031303,0.0030805,0.0034549,0.0038248,0.0043783,0.0051865,0.0085715,0.009473,0.0075075,0.0040672,0.0029922,0.0031468,0.0014359,0.000981,0.00062041,0.00029585,0.00017398,0.00013661,8.01E-05,4.67E-05,3.47E-05,3.04E-05,2.84E-05
500,121,ROO,4.6,0,5,134.96707,C,0.0004467,0.00044767,0.00045138,0.00047043,0.00049895,0.00052435,0.00058654,0.00073739,0.00094366,0.0013435,0.0013988,0.0017728,0.0013894,0.0010082,0.0013999,0.00088863,0.00087039,0.00068726,0.00031585,0.0002682,0.00017365,0.00011783,8.41E-05,6.24E-05,4.76E-05,3.44E-05,2.42E-05,2.33E-05
501,121,UTTA,4.6,0,5,30.3299,A,0.012104,0.01227,0.013051,0.014213,0.017283,0.022702,0.023716,0.041457,0.063559,0.057924,0.047375,0.022671,0.012258,0.0057571,0.0045998,0.004754,0.0031381,0.0017628,0.00092996,0.00059548,0.0003362,0.00020586,0.00017531,9.97E-05,6.15E-05,4.87E-05,4.14E-05,2.25E-05
502,122,UTTA,3.2,0,11.4,19.386769,A,0.0029534,0.0030183,0.003266,0.0041034,0.0050556,0.0059147,0.0077439,0.010272,0.013165,0.012378,0.0095919,0.0021976,0.0015624,0.00087589,0.00048352,0.00031106,0.0001791,8.12E-05,5.12E-05,4.12E-05,2.23E-05,2.47E-05,2.41E-05,2.29E-05,1.90E-05,2.25E-05,1.82E-05,2.08E-05
503,123,BAR,5.5,0,10,207.79825,C,0.0028227,0.0028394,0.0029012,0.0031842,0.0037814,0.0048301,0.0057306,0.0069687,0.00699,0.0066348,0.0066074,0.0092794,0.0067105,0.0083413,0.0056663,0.0023562,0.0020883,0.0019463,0.0012868,0.0011566,0.0011116,0.00047399,0.00033649,0.0002275,0.00018587,0.00014263,8.89E-05,4.39E-05
504,123,NAU,5.5,0,10,179.03172,C,0.0064678,0.0065007,0.0065985,0.0070037,0.0087468,0.010089,0.012287,0.014289,0.016461,0.016565,0.017375,0.018708,0.012074,0.012271,0.012611,0.0074754,0.0074235,0.0071542,0.0038798,0.0027807,0.0016218,0.0011192,0.0010212,0.00039648,0.000243,0.00023577,0.00017038,9.06E-05
505,124,BAR,4.4,0,49.4,99.125306,C,0.0056324,0.0056628,0.0057531,0.0060411,0.0071843,0.0084248,0.010246,0.012901,0.01229,0.013068,0.012005,0.021059,0.0171,0.012239,0.0094209,0.0055274,0.0054611,0.0023797,0.0012262,0.00068179,0.00051208,0.00026589,0.00018442,0.00010584,6.46E-05,5.30E-05,4.26E-05,2.46E-05
506,124,DIB,4.4,0,49.4,315.24759,C,0.0030149,0.0030311,0.0030792,0.00323,0.0037075,0.0037233,0.0041319,0.0055173,0.0067718,0.0083324,0.0090954,0.0057716,0.0081001,0.0067009,0.0054307,0.0046286,0.0047322,0.0029933,0.0020552,0.0012527,0.00078251,0.00060872,0.00048658,0.00029618,0.00021365,0.00014904,0.00011462,5.79E-05
507,124,NAU,4.4,0,49.4,68.970515,C,0.01144,0.011483,0.011621,0.011861,0.012672,0.013213,0.014816,0.017289,0.018783,0.019596,0.018558,0.018727,0.023614,0.025894,0.03151,0.028894,0.01998,0.0063013,0.0037328,0.0024457,0.0012111,0.00076223,0.00058941,0.00037157,0.0002445,0.0001712,0.00012806,8.10E-05
508,124,TZP,4.4,0,49.4,86.80879,B,0.0052656,0.0053117,0.0054909,0.0064623,0.0090529,0.0087064,0.008418,0.011632,0.01177,0.011769,0.010749,0.0086924,0.010418,0.011499,0.015712,0.012496,0.0073249,0.0013695,0.00074915,0.00048531,0.00028677,0.00018392,0.00014783,9.47E-05,5.52E-05,5.15E-05,3.84E-05,2.46E-05
509,125,ASR,5.6,0,9.8,184.83746,C,0.0083084,0.0083466,0.0084784,0.0087593,0.0091298,0.010267,0.012575,0.014209,0.016521,0.015312,0.017842,0.022835,0.022036,0.022449,0.014438,0.0136,0.011639,0.0094883,0.0042743,0.0043869,0.0025195,0.0015824,0.0011698,0.0005823,0.00046465,0.00033046,0.00019795,0.00011981
510,125,CHA,5.6,0,9.8,64.82,A,0.012861,0.012978,0.013436,0.014818,0.01617,0.019476,0.025242,0.032967,0.034639,0.038464,0.035491,0.053704,0.033977,0.02987,0.022993,0.0085588,0.0063264,0.0042626,0.0028922,0.0019419,0.0012987,0.00095382,0.0007028,0.00045039,0.00027898,0.0001803,0.00012477,7.58E-05
511,125,CKR,5.6,0,9.8,334.56936,B,0.0032814,0.0032917,0.0033292,0.0033314,0.0034698,0.0035123,0.0035753,0.0035692,0.003628,0.0039523,0.0044188,0.0076524,0.012774,0.011455,0.0093057,0.0067548,0.0051126,0.001579,0.00090851,0.00052941,0.00036621,0.00026859,0.00028927,0.0001248,7.25E-05,6.12E-05,5.87E-05,3.71E-05
512,125,DSA,5.6,0,9.8,144.60739,C,0.011347,0.011379,0.011477,0.011666,0.012025,0.011672,0.012845,0.013151,0.015837,0.016195,0.020447,0.041752,0.040117,0.039213,0.025624,0.017749,0.011031,0.011094,0.0061046,0.0046295,0.0036515,0.0023706,0.0018718,0.0010254,0.0010086,0.0010692,0.00095853,0.00041736
513,125,GRD,5.6,0,9.8,123.20666,C,0.01206,0.012093,0.012207,0.012422,0.012563,0.013187,0.013909,0.01669,0.019408,0.023303,0.027298,0.02615,0.036153,0.033642,0.020774,0.015571,0.015616,0.0048621,0.0042713,0.0054015,0.0039478,0.0030903,0.0026044,0.001543,0.0013205,0.0011872,0.0011655,0.00039272
514,125,JMU,5.6,0,9.8,92.7,B,0.0042083,0.0042267,0.0042897,0.0043517,0.0050927,0.0063192,0.0056294,0.0061487,0.006894,0.0077762,0.0079471,0.011792,0.010311,0.01121,0.010326,0.011367,0.0076552,0.0061078,0.0044912,0.0040183,0.0032406,0.002043,0.0019058,0.0027639,0.0018506,0.0012891,0.00082164,0.00035476
515,125,JUB,5.6,0,9.8,283.59205,A,0.0074079,0.0074519,0.0075954,0.0078027,0.0086587,0.0091122,0.010734,0.013725,0.014492,0.018407,0.018413,0.040518,0.016668,0.0098087,0.0083763,0.0049632,0.0019215,0.00070038,0.00066315,0.00039501,0.00025226,0.00014243,0.00011217,8.88E-05,5.88E-05,5.12E-05,3.17E-05,2.23E-05
516,125,KSL,5.6,0,9.8,268.60945,B,0.0075408,0.0075522,0.0075863,0.0076024,0.0077476,0.0078463,0.0081948,0.0084297,0.0083747,0.0088387,0.008819,0.012835,0.016788,0.027463,0.018588,0.018996,0.0081828,0.0024063,0.0018429,0.0010866,0.0010845,0.00065857,0.00044095,0.00020838,0.00017497,0.00010727,8.33E-05,8.57E-05
517,125,MND,5.6,0,9.8,188.91846,B,0.0055291,0.0055464,0.0056017,0.005685,0.0058434,0.0065527,0.0082859,0.010185,0.010763,0.012461,0.014971,0.021331,0.015673,0.019072,0.018103,0.013112,0.0047294,0.0030522,0.0020811,0.0015735,0.00087813,0.00050973,0.00052812,0.00024567,0.00017,0.00012182,0.00010364,5.40E-05
518,125,MOG,5.6,0,9.8,260.36424,C,0.0061292,0.0061353,0.006153,0.0061743,0.0062008,0.0062549,0.006447,0.0065146,0.0071792,0.008058,0.0079101,0.011629,0.012805,0.011224,0.014899,0.018436,0.01228,0.0097043,0.0064336,0.0039408,0.002558,0.001404,0.0009455,0.00055055,0.00034577,0.00022264,0.00017496,0.00012008
519,125,MUK,5.6,0,9.8,129.19891,C,0.011784,0.011817,0.01192,0.012156,0.012618,0.013746,0.014694,0.016808,0.020808,0.023795,0.022413,0.032179,0.044443,0.022857,0.021901,0.021024,0.015999,0.011455,0.0062034,0.0034692,0.0030097,0.0022717,0.0018276,0.00078323,0.0006937,0.00075888,0.00079386,0.0003083
520,125,NAW,5.6,0,9.8,221.99064,C,0.016335,0.016369,0.016471,0.016653,0.016805,0.016766,0.017452,0.018226,0.019246,0.020854,0.021612,0.031193,0.057356,0.073849,0.052697,0.020682,0.017322,0.007146,0.0060957,0.0035175,0.0026493,0.0018797,0.0017432,0.00072753,0.00049466,0.00040648,0.000301,0.00019026
521,125,PHG,5.6,0,9.8,209.95566,C,0.014738,0.014766,0.014851,0.014971,0.015332,0.015328,0.017016,0.017763,0.020189,0.025003,0.024551,0.040222,0.059804,0.038389,0.034822,0.029142,0.018402,0.0080635,0.0046031,0.0040103,0.0023317,0.0011517,0.00086583,0.00053913,0.00040039,0.00031556,0.00029881,0.00015424
522,125,PLM,5.6,0,9.8,130.14395,B,0.0084934,0.0085162,0.0085839,0.0087401,0.0090889,0.0098912,0.010084,0.010315,0.011385,0.012694,0.013683,0.027364,0.030746,0.032555,0.022077,0.015054,0.008354,0.0055546,0.0031795,0.0020795,0.0011208,0.0011986,0.00091973,0.00034115,0.00022597,0.00014864,0.00012303,7.74E-05
523,125,PTK,5.6,0,9.8,89.89,C,0.0063176,0.0063508,0.0064591,0.0066683,0.0072262,0.0075317,0.0082292,0.0098271,0.011335,0.016872,0.022783,0.015092,0.012124,0.013401,0.0099885,0.0088497,0.0065244,0.0045118,0.0035821,0.0027723,0.0023068,0.0012642,0.0010684,0.00057085,0.0006741,0.00069157,0.00053588,0.00020935
524,125,RAM,5.6,0,9.8,252.74875,A,0.013255,0.013285,0.013369,0.013518,0.014097,0.014472,0.014934,0.015625,0.017651,0.019548,0.018606,0.037814,0.029431,0.051211,0.047617,0.024127,0.0072279,0.0020896,0.0014033,0.00086058,0.00047791,0.0003586,0.00031228,0.00019007,0.00014399,0.00010404,8.20E-05,5.30E-05
